SZ-21 MODULE            
1 66515U 25246C   26069.39180920  .00046134  00000+0  39495-3 0  9997
2 66515  41.4733 199.0379 0001321 300.4317  59.6394 15.68612654 18188
YOTSUBA-KULOVER         
1 65941U 98067XN  26069.33789565  .00265347  00000+0  13058-2 0  9999
2 65941  51.6217  53.9301 0005411  71.4420 288.7169 15.80840191 23608
E-KAGAKU-1              
1 65943U 98067XQ  26069.34249757  .00251985  00000+0  12629-2 0  9992
2 65943  51.6235  53.9788 0005844  78.4136 281.7521 15.80477598 23602
HRC MONOBLOCK CAMERA    
1 66052U 98067XR  26069.14813696  .00064288  00000+0  71499-3 0  9990
2 66052  51.6279  63.2192 0003667  93.4712 266.6702 15.62255862 22467
HTV-X1                  
1 66174U 25241A   26069.15865511  .00009130  00000+0  17626-3 0  9990
2 66174  51.6324  70.0375 0007971 176.2903 183.8146 15.48557200554474
SHENZHOU-22             
1 66645U 25272A   26069.80341873  .00031070  00000+0  36544-3 0  9997
2 66645  41.4661 201.3850 0006965 279.9751  80.0301 15.60727089269460
SOYUZ-MS 28             
1 66664U 25275A   26069.48132270  .00008982  00000+0  17349-3 0  9992
2 66664  51.6323  68.4424 0007951 177.3714 182.7318 15.48562436556460
DUPLEX                  
1 66906U 98067XS  26069.61358754  .00039211  00000+0  55126-3 0  9996
2 66906  51.6293  64.8292 0002504 116.6687 243.4561 15.56285784 15273
ISS OBJECT XT           
1 66907U 98067XT  26069.21962525  .00189996  00000+0  15519-2 0  9997
2 66907  51.6253  62.9330 0004725  80.8513 279.3019 15.69436118 15267
ISS OBJECT XU           
1 66908U 98067XU  26069.53611704  .00177562  00000+0  14388-2 0  9992
2 66908  51.6261  61.2936 0004878  85.4529 274.7026 15.69670392 15315
SILVERSAT               
1 66909U 98067XV  26069.21803307  .00249186  00000+0  17776-2 0  9996
2 66909  51.6252  62.1676 0005475  80.1195 280.0421 15.72479555 15278
ISS OBJECT XW           
1 66910U 98067XW  26069.46951925  .00167916  00000+0  14095-2 0  9996
2 66910  51.6243  61.5937 0005289  91.4427 268.7175 15.68845545 15303
